OBJECT_NAME,OBJECT_ID,EPOCH,MEAN_MOTION,ECCENTRICITY,INCLINATION,RA_OF_ASC_NODE,ARG_OF_PERICENTER,MEAN_ANOMALY,EPHEMERIS_TYPE,CLASSIFICATION_TYPE,NORAD_CAT_ID,ELEMENT_SET_NO,REV_AT_EPOCH,BSTAR,MEAN_MOTION_DOT,MEAN_MOTION_DDOT
BEIDOU-2 IGSO-5 (C10),2011-073A,2026-06-18T16:01:15.839616,1.00272695,.01139717,47.6748,271.5267,221.7702,105.6518,0,U,37948,999,5314,0,-.192E-5,0
LUCH 5A (SDCM/PRN 140),2011-074B,2026-06-22T14:59:29.132736,1.00271508,.00025384,8.7684,73.7290,28.1178,200.7535,0,U,37951,999,5310,0,-.52E-6,0
BEIDOU-2 G5 (C05),2012-008A,2026-06-22T21:22:00.552288,1.00273934,.00089446,3.5890,69.6736,274.3935,306.1786,0,U,38091,999,5242,0,.58E-6,0
BEIDOU-2 M3 (C11),2012-018A,2026-06-19T20:57:49.192992,1.86229605,.00201629,55.7552,304.7847,273.6567,86.1052,0,U,38250,999,9599,0,-.87E-6,0
BEIDOU-2 M4 (C12),2012-018B,2026-06-21T10:00:00.201600,1.86229230,.00113671,55.6541,303.9461,274.9349,84.9285,0,U,38251,999,9602,0,-.98E-6,0
SES-5 (EGNOS/PRN 136),2012-036A,2026-06-22T12:45:31.125600,1.00271557,.00019467,0.0466,315.0978,134.3683,17.5956,0,U,38652,999,4451,0,.36E-6,0
BEIDOU-2 M6 (C14),2012-050B,2026-06-20T01:15:33.302592,1.86230944,.00136159,56.5467,62.7995,357.8468,2.1878,0,U,38775,999,9336,0,-.69E-6,0
GSAT-10 (GAGAN/PRN 128),2012-051B,2026-06-22T19:57:11.606976,1.00272246,.00079831,0.0661,260.5064,188.8869,203.9300,0,U,38779,999,5015,0,-.162E-5,0
GPS BIIF-3  (PRN 24),2012-053A,2026-06-22T07:14:41.346816,2.00567577,.01805881,53.5869,143.3898,65.8280,296.0242,0,U,38833,999,9954,0,.63E-6,0
GSAT0103 (GALILEO-FM3),2012-055A,2026-06-22T04:02:23.051040,1.70473493,.00048704,55.8093,101.4088,305.8797,54.0543,0,U,38857,999,8509,0,-.24E-6,0
BEIDOU-2 G6 (C02),2012-059A,2026-06-22T19:58:37.255296,1.00271396,.00098135,4.4368,73.4690,326.0822,255.1504,0,U,38953,999,4996,0,-.174E-5,0
LUCH 5B (SDCM/PRN 125),2012-061A,2026-06-22T09:14:26.592000,1.00272227,.00023648,10.4958,49.8329,144.2899,198.7873,0,U,38977,999,4965,0,-.142E-5,0
COSMOS 2485 (747),2013-019A,2026-06-22T01:43:28.557984,2.13103126,.00229766,65.4224,73.4404,233.5948,126.2265,0,U,39155,999,10238,0,-.57E-6,0
GPS BIIF-4  (PRN 27),2013-023A,2026-06-20T04:11:29.178528,2.00563443,.01414931,54.5016,268.8519,51.0455,310.2435,0,U,39166,999,9594,0,-.57E-6,0
IRNSS-1A,2013-034A,2026-06-18T21:29:26.733984,1.00275723,.00175894,35.7241,63.8469,183.2529,37.3106,0,U,39199,999,4738,0,.51E-6,0
GPS BIIF-5  (PRN 30),2014-008A,2026-06-22T16:03:43.131744,2.00560153,.00842314,53.6555,149.0961,231.3612,127.8645,0,U,39533,999,8979,0,.71E-6,0
ASTRA 5B (EGNOS/PRN 123),2014-011B,2026-06-22T19:41:32.535744,1.00270350,.00021284,0.0588,316.8259,114.1470,158.8818,0,U,39617,999,4472,0,.14E-5,0
COSMOS 2492 (754),2014-012A,2026-06-22T11:59:59.184384,2.13103084,.00102176,65.2939,313.7548,323.4327,36.4899,0,U,39620,999,9535,0,-.75E-6,0
IRNSS-1B,2014-017A,2026-06-22T18:08:03.866784,1.00268591,.00234964,28.9065,240.3095,164.9008,193.0039,0,U,39635,999,4484,0,.117E-5,0
LUCH 5V (SDCM/PRN 141),2014-023A,2026-06-22T20:18:56.413728,1.00272778,.00021311,5.1476,69.6938,46.3792,194.4297,0,U,39727,999,4441,0,-.268E-5,0
GPS BIIF-6  (PRN 06),2014-026A,2026-06-21T10:46:37.365312,2.00560703,.00381424,56.4961,331.3514,326.5023,33.2518,0,U,39741,999,8862,0,-.95E-6,0
COSMOS 2500 (755),2014-032A,2026-06-21T06:17:09.946752,2.13105734,.00074918,65.2298,313.5443,184.9913,174.9944,0,U,40001,999,9354,0,-.67E-6,0
GPS BIIF-7  (PRN 09),2014-045A,2026-06-22T00:56:46.664736,2.00558750,.00335455,55.3562,88.2716,118.2165,242.1273,0,U,40105,999,8617,0,-.44E-6,0
GSAT0201 (GALILEO 5),2014-050A,2026-06-19T13:44:55.894560,1.85520003,.16749227,48.8729,273.3385,179.4838,180.7636,0,U,40128,999,7836,0,-.74E-6,0
GSAT0202 (GALILEO 6),2014-050B,2026-06-22T12:33:33.795648,1.85520660,.16765714,48.8862,272.3029,180.3279,179.5934,0,U,40129,999,8058,0,-.91E-6,0
IRNSS-1C,2014-061A,2026-06-22T19:58:29.767008,1.00268436,.00226416,6.5315,88.8241,3.1186,201.6080,0,U,40269,999,4274,0,-.16E-5,0
GPS BIIF-8  (PRN 03),2014-068A,2026-06-21T21:48:54.201024,2.00576516,.0067156,56.9908,30.7727,70.7865,289.9877,0,U,40294,999,8530,0,-.97E-6,0
COSMOS 2501 (702K),2014-075A,2026-06-21T01:18:52.285248,2.13101228,.00226277,63.6166,190.2381,212.5574,147.3441,0,U,40315,999,8993,0,.72E-6,0
GPS BIIF-9  (PRN 26),2015-013A,2026-06-22T13:07:49.080576,2.00551137,.01096675,53.1676,203.9557,40.1740,320.6907,0,U,40534,999,8193,0,.6E-6,0
GSAT0203 (GALILEO 7),2015-017A,2026-06-22T11:48:33.950304,1.70476233,.00020984,56.7854,341.4508,272.3017,87.6709,0,U,40544,999,6929,0,-.98E-6,0
GSAT0204 (GALILEO 8),2015-017B,2026-06-21T13:47:33.414720,1.70475807,.00020456,56.7944,341.4944,242.6592,117.3159,0,U,40545,999,3232,0,-.97E-6,0
